{
  "type": "FeatureCollection",
  "features": [
    {
      "type": "Feature",
      "properties": {
        "norad_id": 55973,
        "name": "TIANMU-1 03",
        "group": "weather",
        "lat": -2.1932304189790224,
        "lon": -17.027747565034424,
        "alt_km": 448.02487831556937,
        "timestamp": "2025-12-26T05:31:12.142192+00:00",
        "meta_object_name": "TIANMU-1 03",
        "meta_object_id": "2023-039A",
        "meta_epoch": "2025-12-25T22:30:00.432000",
        "meta_mean_motion": 15.4131006,
        "meta_eccentricity": 0.00037431,
        "meta_inclination": 97.5115,
        "meta_ra_of_asc_node": 162.961,
        "meta_arg_of_pericenter": 22.2231,
        "meta_mean_anomaly": 337.9177,
        "meta_ephemeris_type": 0,
        "meta_classification_type": "U",
        "meta_norad_cat_id": 55973,
        "meta_element_set_no": 999,
        "meta_rev_at_epoch": 15409,
        "meta_bstar": 0.00040516594,
        "meta_mean_motion_dot": 0.0001681,
        "meta_mean_motion_ddot": 0,
        "tle_line1": "1 55973U 23039A   25359.93750500  .00016810  00000+0  40517-3 0  9994",
        "tle_line2": "2 55973  97.5115 162.9610 0003743  22.2231 337.9177 15.41310060154090"
      },
      "geometry": {
        "type": "Point",
        "coordinates": [
          -17.027747565034424,
          -2.1932304189790224
        ]
      }
    },
    {
      "type": "Feature",
      "properties": {
        "norad_id": 55974,
        "name": "TIANMU-1 04",
        "group": "weather",
        "lat": -47.05192983410969,
        "lon": 170.58936549487055,
        "alt_km": 446.6708083049498,
        "timestamp": "2025-12-26T05:31:12.142202+00:00",
        "meta_object_name": "TIANMU-1 04",
        "meta_object_id": "2023-039B",
        "meta_epoch": "2025-12-25T23:29:41.508960",
        "meta_mean_motion": 15.41654822,
        "meta_eccentricity": 0.00043297,
        "meta_inclination": 97.5046,
        "meta_ra_of_asc_node": 162.1894,
        "meta_arg_of_pericenter": 15.1943,
        "meta_mean_anomaly": 344.9432,
        "meta_ephemeris_type": 0,
        "meta_classification_type": "U",
        "meta_norad_cat_id": 55974,
        "meta_element_set_no": 999,
        "meta_rev_at_epoch": 15410,
        "meta_bstar": 0.00037311847,
        "meta_mean_motion_dot": 0.00015651,
        "meta_mean_motion_ddot": 0,
        "tle_line1": "1 55974U 23039B   25359.97895265  .00015651  00000+0  37312-3 0  9998",
        "tle_line2": "2 55974  97.5046 162.1894 0004329  15.1943 344.9432 15.41654822154103"
      },
      "geometry": {
        "type": "Point",
        "coordinates": [
          170.58936549487055,
          -47.05192983410969
        ]
      }
    },
    {
      "type": "Feature",
      "properties": {
        "norad_id": 55975,
        "name": "TIANMU-1 05",
        "group": "weather",
        "lat": -33.95602459002081,
        "lon": 168.03659674354378,
        "alt_km": 447.9466284848222,
        "timestamp": "2025-12-26T05:31:12.142249+00:00",
        "meta_object_name": "TIANMU-1 05",
        "meta_object_id": "2023-039C",
        "meta_epoch": "2025-12-25T23:26:08.865600",
        "meta_mean_motion": 15.41267256,
        "meta_eccentricity": 0.0003879,
        "meta_inclination": 97.5093,
        "meta_ra_of_asc_node": 162.6798,
        "meta_arg_of_pericenter": 41.6862,
        "meta_mean_anomaly": 318.4679,
        "meta_ephemeris_type": 0,
        "meta_classification_type": "U",
        "meta_norad_cat_id": 55975,
        "meta_element_set_no": 999,
        "meta_rev_at_epoch": 15408,
        "meta_bstar": 0.00036905812,
        "meta_mean_motion_dot": 0.0001528,
        "meta_mean_motion_ddot": 0,
        "tle_line1": "1 55975U 23039C   25359.97649150  .00015280  00000+0  36906-3 0  9995",
        "tle_line2": "2 55975  97.5093 162.6798 0003879  41.6862 318.4679 15.41267256154084"
      },
      "geometry": {
        "type": "Point",
        "coordinates": [
          168.03659674354378,
          -33.95602459002081
        ]
      }
    },
    {
      "type": "Feature",
      "properties": {
        "norad_id": 55976,
        "name": "TIANMU-1 06",
        "group": "weather",
        "lat": -56.36808578298808,
        "lon": 174.8561500834749,
        "alt_km": 448.2399892959511,
        "timestamp": "2025-12-26T05:31:12.142262+00:00",
        "meta_object_name": "TIANMU-1 06",
        "meta_object_id": "2023-039D",
        "meta_epoch": "2025-12-25T23:32:11.190048",
        "meta_mean_motion": 15.41705958,
        "meta_eccentricity": 0.00041314,
        "meta_inclination": 97.5104,
        "meta_ra_of_asc_node": 163.1602,
        "meta_arg_of_pericenter": 35.4344,
        "meta_mean_anomaly": 324.7177,
        "meta_ephemeris_type": 0,
        "meta_classification_type": "U",
        "meta_norad_cat_id": 55976,
        "meta_element_set_no": 999,
        "meta_rev_at_epoch": 15410,
        "meta_bstar": 0.00037185501,
        "meta_mean_motion_dot": 0.00015624,
        "meta_mean_motion_ddot": 0,
        "tle_line1": "1 55976U 23039D   25359.98068507  .00015624  00000+0  37186-3 0  9991",
        "tle_line2": "2 55976  97.5104 163.1602 0004131  35.4344 324.7177 15.41705958154108"
      },
      "geometry": {
        "type": "Point",
        "coordinates": [
          174.8561500834749,
          -56.36808578298808
        ]
      }
    },
    {
      "type": "Feature",
      "properties": {
        "norad_id": 56232,
        "name": "FENGYUN 3G",
        "group": "weather",
        "lat": -0.7515071256583467,
        "lon": 157.2033502138206,
        "alt_km": 410.0806235851351,
        "timestamp": "2025-12-26T05:31:12.142275+00:00",
        "meta_object_name": "FENGYUN 3G",
        "meta_object_id": "2023-055A",
        "meta_epoch": "2025-12-25T21:47:55.428288",
        "meta_mean_motion": 15.52099501,
        "meta_eccentricity": 0.00039436,
        "meta_inclination": 49.9929,
        "meta_ra_of_asc_node": 159.4919,
        "meta_arg_of_pericenter": 292.4096,
        "meta_mean_anomaly": 67.6453,
        "meta_ephemeris_type": 0,
        "meta_classification_type": "U",
        "meta_norad_cat_id": 56232,
        "meta_element_set_no": 999,
        "meta_rev_at_epoch": 15307,
        "meta_bstar": 0.00049344243,
        "meta_mean_motion_dot": 0.00030052,
        "meta_mean_motion_ddot": 0,
        "tle_line1": "1 56232U 23055A   25359.90828042  .00030052  00000+0  49344-3 0  9996",
        "tle_line2": "2 56232  49.9929 159.4919 0003943 292.4096  67.6453 15.52099501153075"
      },
      "geometry": {
        "type": "Point",
        "coordinates": [
          157.2033502138206,
          -0.7515071256583467
        ]
      }
    },
    {
      "type": "Feature",
      "properties": {
        "norad_id": 57166,
        "name": "METEOR-M2 3",
        "group": "weather",
        "lat": -64.45393367683563,
        "lon": -145.00759193708103,
        "alt_km": 818.5743101154239,
        "timestamp": "2025-12-26T05:31:12.142286+00:00",
        "meta_object_name": "METEOR-M2 3",
        "meta_object_id": "2023-091A",
        "meta_epoch": "2025-12-25T23:18:35.756352",
        "meta_mean_motion": 14.24027606,
        "meta_eccentricity": 0.00032124,
        "meta_inclination": 98.6361,
        "meta_ra_of_asc_node": 53.2784,
        "meta_arg_of_pericenter": 327.2302,
        "meta_mean_anomaly": 32.8677,
        "meta_ephemeris_type": 0,
        "meta_classification_type": "U",
        "meta_norad_cat_id": 57166,
        "meta_element_set_no": 999,
        "meta_rev_at_epoch": 12986,
        "meta_bstar": 1.8395914e-05,
        "meta_mean_motion_dot": -1e-08,
        "meta_mean_motion_ddot": 0,
        "tle_line1": "1 57166U 23091A   25359.97124718 -.00000001  00000+0  18396-4 0  9995",
        "tle_line2": "2 57166  98.6361  53.2784 0003212 327.2302  32.8677 14.24027606129867"
      },
      "geometry": {
        "type": "Point",
        "coordinates": [
          -145.00759193708103,
          -64.45393367683563
        ]
      }
    },
    {
      "type": "Feature",
      "properties": {
        "norad_id": 57399,
        "name": "TIANMU-1 07",
        "group": "weather",
        "lat": 78.97494164472293,
        "lon": 8.737379282993354,
        "alt_km": 470.9068783208022,
        "timestamp": "2025-12-26T05:31:12.142297+00:00",
        "meta_object_name": "TIANMU-1 07",
        "meta_object_id": "2023-101A",
        "meta_epoch": "2025-12-25T22:52:42.482208",
        "meta_mean_motion": 15.28257746,
        "meta_eccentricity": 0.00049562,
        "meta_inclination": 97.2856,
        "meta_ra_of_asc_node": 49.5114,
        "meta_arg_of_pericenter": 47.3562,
        "meta_mean_anomaly": 312.8095,
        "meta_ephemeris_type": 0,
        "meta_classification_type": "U",
        "meta_norad_cat_id": 57399,
        "meta_element_set_no": 999,
        "meta_rev_at_epoch": 13517,
        "meta_bstar": 0.00028440293,
        "meta_mean_motion_dot": 7.76e-05,
        "meta_mean_motion_ddot": 0,
        "tle_line1": "1 57399U 23101A   25359.95326947  .00007760  00000+0  28440-3 0  9999",
        "tle_line2": "2 57399  97.2856  49.5114 0004956  47.3562 312.8095 15.28257746135179"
      },
      "geometry": {
        "type": "Point",
        "coordinates": [
          8.737379282993354,
          78.97494164472293
        ]
      }
    }
  ]
}